ONEWEB-0566             
1 56061U 23043R   26120.28266104 -.00000009  00000+0 -54398-4 0  9993
2 56061  87.9224 253.5076 0001771  89.7663 270.3674 13.21823672151905
ONEWEB-0568             
1 56062U 23043S   26120.28484762  .00000000  00000+0 -34841-4 0  9997
2 56062  87.9084 238.2843 0001827 111.0342 249.0985 13.16594771152679
ONEWEB-0574             
1 56063U 23043T   26120.27594959 -.00000023  00000+0 -87378-4 0  9996
2 56063  87.9233 253.5074 0002042 104.5982 255.5378 13.21826917151942
ONEWEB-0575             
1 56064U 23043U   26120.27852338  .00000113  00000+0  26243-3 0  9996
2 56064  87.9088 238.2816 0002235 112.2222 247.9146 13.16595087152665
ONEWEB-0576             
1 56065U 23043V   26120.25952514  .00000016  00000+0  89971-5 0  9993
2 56065  87.9090 238.2919 0002034 108.0008 252.1345 13.16594211152651
ONEWEB-0577             
1 56066U 23043W   26120.26585185  .00000016  00000+0  91241-5 0  9994
2 56066  87.9089 238.2884 0002614 112.7917 247.3490 13.16594708152687
ONEWEB-0578             
1 56067U 23043X   26119.88400574  .00000011  00000+0 -57403-5 0  9997
2 56067  87.9226 253.5871 0001734 109.8890 250.2431 13.21826725151855
ONEWEB-0579             
1 56068U 23043Y   26119.87559617  .00000066  00000+0  12914-3 0  9995
2 56068  87.9231 253.5833 0001991  92.4709 267.6653 13.21827698151860
ONEWEB-0581             
1 56069U 23043Z   26120.27218548 -.00000012  00000+0 -63725-4 0  9997
2 56069  87.9088 238.2989 0002452 108.8810 251.2588 13.16594247152650
ONEWEB-0609             
1 56070U 23043AA  26119.96103984 -.00000036  00000+0 -12902-3 0  9996
2 56070  87.8954 268.8301 0001711  96.9949 263.1376 13.15550057150090
ONEWEB-0613             
1 56071U 23043AB  26119.95866798  .00000014  00000+0  25412-5 0  9991
2 56071  87.8954 268.8425 0001831  88.7932 271.3408 13.15548666150092
ONEWEB-0630             
1 56072U 23043AC  26119.95391284  .00000047  00000+0  89873-4 0  9991
2 56072  87.8956 268.8140 0001866  90.0840 270.0504 13.15548117150084
ONEWEB-0632             
1 56073U 23043AD  26119.94916076  .00000113  00000+0  26582-3 0  9994
2 56073  87.8956 268.8328 0001970  99.5401 260.5952 13.15548504150087
ONEWEB-0633             
1 56074U 23043AE  26120.17097996  .00000161  00000+0  39294-3 0  9990
2 56074  87.8965 268.7603 0001681  84.8306 275.3016 13.15548050150095
ONEWEB-0634             
1 56075U 23043AF  26119.92855683  .00000155  00000+0  37872-3 0  9990
2 56075  87.8954 268.8529 0001505 103.6533 256.4765 13.15548956150051
ONEWEB-0635             
1 56076U 23043AG  26119.92380786  .00000019  00000+0  16727-4 0  9994
2 56076  87.8963 268.8121 0002077 102.3325 257.8038 13.15547949150082
