[{"OBJECT_NAME":"ONEWEB-0566","OBJECT_ID":"2023-043R","EPOCH":"2026-04-30T06:47:01.913856","MEAN_MOTION":13.21823672,"ECCENTRICITY":0.0001771,"INCLINATION":87.9224,"RA_OF_ASC_NODE":253.5076,"ARG_OF_PERICENTER":89.7663,"MEAN_ANOMALY":270.3674,"EPHEMERIS_TYPE":0,"CLASSIFICATION_TYPE":"U","NORAD_CAT_ID":56061,"ELEMENT_SET_NO":999,"REV_AT_EPOCH":15190,"BSTAR":-5.4398e-05,"MEAN_MOTION_DOT":-9e-08,"MEAN_MOTION_DDOT":0.0},{"OBJECT_NAME":"ONEWEB-0568","OBJECT_ID":"2023-043S","EPOCH":"2026-04-30T06:50:10.834368","MEAN_MOTION":13.16594771,"ECCENTRICITY":0.0001827,"INCLINATION":87.9084,"RA_OF_ASC_NODE":238.2843,"ARG_OF_PERICENTER":111.0342,"MEAN_ANOMALY":249.0985,"EPHEMERIS_TYPE":0,"CLASSIFICATION_TYPE":"U","NORAD_CAT_ID":56062,"ELEMENT_SET_NO":999,"REV_AT_EPOCH":15267,"BSTAR":-3.4841e-05,"MEAN_MOTION_DOT":0.0,"MEAN_MOTION_DDOT":0.0},{"OBJECT_NAME":"ONEWEB-0574","OBJECT_ID":"2023-043T","EPOCH":"2026-04-30T06:37:22.044576","MEAN_MOTION":13.21826917,"ECCENTRICITY":0.0002042,"INCLINATION":87.9233,"RA_OF_ASC_NODE":253.5074,"ARG_OF_PERICENTER":104.5982,"MEAN_ANOMALY":255.5378,"EPHEMERIS_TYPE":0,"CLASSIFICATION_TYPE":"U","NORAD_CAT_ID":56063,"ELEMENT_SET_NO":999,"REV_AT_EPOCH":15194,"BSTAR":-8.7378e-05,"MEAN_MOTION_DOT":-2.3e-07,"MEAN_MOTION_DDOT":0.0},{"OBJECT_NAME":"ONEWEB-0575","OBJECT_ID":"2023-043U","EPOCH":"2026-04-30T06:41:04.420032","MEAN_MOTION":13.16595087,"ECCENTRICITY":0.0002235,"INCLINATION":87.9088,"RA_OF_ASC_NODE":238.2816,"ARG_OF_PERICENTER":112.2222,"MEAN_ANOMALY":247.9146,"EPHEMERIS_TYPE":0,"CLASSIFICATION_TYPE":"U","NORAD_CAT_ID":56064,"ELEMENT_SET_NO":999,"REV_AT_EPOCH":15266,"BSTAR":0.00026243,"MEAN_MOTION_DOT":1.13e-06,"MEAN_MOTION_DDOT":0.0},{"OBJECT_NAME":"ONEWEB-0576","OBJECT_ID":"2023-043V","EPOCH":"2026-04-30T06:13:42.972096","MEAN_MOTION":13.16594211,"ECCENTRICITY":0.0002034,"INCLINATION":87.909,"RA_OF_ASC_NODE":238.2919,"ARG_OF_PERICENTER":108.0008,"MEAN_ANOMALY":252.1345,"EPHEMERIS_TYPE":0,"CLASSIFICATION_TYPE":"U","NORAD_CAT_ID":56065,"ELEMENT_SET_NO":999,"REV_AT_EPOCH":15265,"BSTAR":8.9971e-06,"MEAN_MOTION_DOT":1.6e-07,"MEAN_MOTION_DDOT":0.0},{"OBJECT_NAME":"ONEWEB-0577","OBJECT_ID":"2023-043W","EPOCH":"2026-04-30T06:22:49.599840","MEAN_MOTION":13.16594708,"ECCENTRICITY":0.0002614,"INCLINATION":87.9089,"RA_OF_ASC_NODE":238.2884,"ARG_OF_PERICENTER":112.7917,"MEAN_ANOMALY":247.349,"EPHEMERIS_TYPE":0,"CLASSIFICATION_TYPE":"U","NORAD_CAT_ID":56066,"ELEMENT_SET_NO":999,"REV_AT_EPOCH":15268,"BSTAR":9.124100000000001e-06,"MEAN_MOTION_DOT":1.6e-07,"MEAN_MOTION_DDOT":0.0},{"OBJECT_NAME":"ONEWEB-0578","OBJECT_ID":"2023-043X","EPOCH":"2026-04-29T21:12:58.095936","MEAN_MOTION":13.21826725,"ECCENTRICITY":0.0001734,"INCLINATION":87.9226,"RA_OF_ASC_NODE":253.5871,"ARG_OF_PERICENTER":109.889,"MEAN_ANOMALY":250.2431,"EPHEMERIS_TYPE":0,"CLASSIFICATION_TYPE":"U","NORAD_CAT_ID":56067,"ELEMENT_SET_NO":999,"REV_AT_EPOCH":15185,"BSTAR":-5.740300000000001e-06,"MEAN_MOTION_DOT":1.1e-07,"MEAN_MOTION_DDOT":0.0},{"OBJECT_NAME":"ONEWEB-0579","OBJECT_ID":"2023-043Y","EPOCH":"2026-04-29T21:00:51.509088","MEAN_MOTION":13.21827698,"ECCENTRICITY":0.0001991,"INCLINATION":87.9231,"RA_OF_ASC_NODE":253.5833,"ARG_OF_PERICENTER":92.4709,"MEAN_ANOMALY":267.6653,"EPHEMERIS_TYPE":0,"CLASSIFICATION_TYPE":"U","NORAD_CAT_ID":56068,"ELEMENT_SET_NO":999,"REV_AT_EPOCH":15186,"BSTAR":0.00012914,"MEAN_MOTION_DOT":6.6e-07,"MEAN_MOTION_DDOT":0.0},{"OBJECT_NAME":"ONEWEB-0581","OBJECT_ID":"2023-043Z","EPOCH":"2026-04-30T06:31:56.825472","MEAN_MOTION":13.16594247,"ECCENTRICITY":0.0002452,"INCLINATION":87.9088,"RA_OF_ASC_NODE":238.2989,"ARG_OF_PERICENTER":108.881,"MEAN_ANOMALY":251.2588,"EPHEMERIS_TYPE":0,"CLASSIFICATION_TYPE":"U","NORAD_CAT_ID":56069,"ELEMENT_SET_NO":999,"REV_AT_EPOCH":15265,"BSTAR":-6.3725e-05,"MEAN_MOTION_DOT":-1.2e-07,"MEAN_MOTION_DDOT":0.0},{"OBJECT_NAME":"ONEWEB-0609","OBJECT_ID":"2023-043AA","EPOCH":"2026-04-29T23:03:53.842176","MEAN_MOTION":13.15550057,"ECCENTRICITY":0.0001711,"INCLINATION":87.8954,"RA_OF_ASC_NODE":268.8301,"ARG_OF_PERICENTER":96.9949,"MEAN_ANOMALY":263.1376,"EPHEMERIS_TYPE":0,"CLASSIFICATION_TYPE":"U","NORAD_CAT_ID":56070,"ELEMENT_SET_NO":999,"REV_AT_EPOCH":15009,"BSTAR":-0.00012902,"MEAN_MOTION_DOT":-3.6e-07,"MEAN_MOTION_DDOT":0.0},{"OBJECT_NAME":"ONEWEB-0613","OBJECT_ID":"2023-043AB","EPOCH":"2026-04-29T23:00:28.913472","MEAN_MOTION":13.15548666,"ECCENTRICITY":0.0001831,"INCLINATION":87.8954,"RA_OF_ASC_NODE":268.8425,"ARG_OF_PERICENTER":88.7932,"MEAN_ANOMALY":271.3408,"EPHEMERIS_TYPE":0,"CLASSIFICATION_TYPE":"U","NORAD_CAT_ID":56071,"ELEMENT_SET_NO":999,"REV_AT_EPOCH":15009,"BSTAR":2.5412000000000003e-06,"MEAN_MOTION_DOT":1.4e-07,"MEAN_MOTION_DDOT":0.0},{"OBJECT_NAME":"ONEWEB-0630","OBJECT_ID":"2023-043AC","EPOCH":"2026-04-29T22:53:38.069376","MEAN_MOTION":13.15548117,"ECCENTRICITY":0.0001866,"INCLINATION":87.8956,"RA_OF_ASC_NODE":268.814,"ARG_OF_PERICENTER":90.084,"MEAN_ANOMALY":270.0504,"EPHEMERIS_TYPE":0,"CLASSIFICATION_TYPE":"U","NORAD_CAT_ID":56072,"ELEMENT_SET_NO":999,"REV_AT_EPOCH":15008,"BSTAR":8.987300000000001e-05,"MEAN_MOTION_DOT":4.7e-07,"MEAN_MOTION_DDOT":0.0},{"OBJECT_NAME":"ONEWEB-0632","OBJECT_ID":"2023-043AD","EPOCH":"2026-04-29T22:46:47.489664","MEAN_MOTION":13.15548504,"ECCENTRICITY":0.000197,"INCLINATION":87.8956,"RA_OF_ASC_NODE":268.8328,"ARG_OF_PERICENTER":99.5401,"MEAN_ANOMALY":260.5952,"EPHEMERIS_TYPE":0,"CLASSIFICATION_TYPE":"U","NORAD_CAT_ID":56073,"ELEMENT_SET_NO":999,"REV_AT_EPOCH":15008,"BSTAR":0.00026582,"MEAN_MOTION_DOT":1.13e-06,"MEAN_MOTION_DDOT":0.0},{"OBJECT_NAME":"ONEWEB-0633","OBJECT_ID":"2023-043AE","EPOCH":"2026-04-30T04:06:12.668544","MEAN_MOTION":13.1554805,"ECCENTRICITY":0.0001681,"INCLINATION":87.8965,"RA_OF_ASC_NODE":268.7603,"ARG_OF_PERICENTER":84.8306,"MEAN_ANOMALY":275.3016,"EPHEMERIS_TYPE":0,"CLASSIFICATION_TYPE":"U","NORAD_CAT_ID":56074,"ELEMENT_SET_NO":999,"REV_AT_EPOCH":15009,"BSTAR":0.00039294000000000004,"MEAN_MOTION_DOT":1.61e-06,"MEAN_MOTION_DDOT":0.0},{"OBJECT_NAME":"ONEWEB-0634","OBJECT_ID":"2023-043AF","EPOCH":"2026-04-29T22:17:07.310112","MEAN_MOTION":13.15548956,"ECCENTRICITY":0.0001505,"INCLINATION":87.8954,"RA_OF_ASC_NODE":268.8529,"ARG_OF_PERICENTER":103.6533,"MEAN_ANOMALY":256.4765,"EPHEMERIS_TYPE":0,"CLASSIFICATION_TYPE":"U","NORAD_CAT_ID":56075,"ELEMENT_SET_NO":999,"REV_AT_EPOCH":15005,"BSTAR":0.00037872000000000003,"MEAN_MOTION_DOT":1.55e-06,"MEAN_MOTION_DDOT":0.0},{"OBJECT_NAME":"ONEWEB-0635","OBJECT_ID":"2023-043AG","EPOCH":"2026-04-29T22:10:16.999104","MEAN_MOTION":13.15547949,"ECCENTRICITY":0.0002077,"INCLINATION":87.8963,"RA_OF_ASC_NODE":268.8121,"ARG_OF_PERICENTER":102.3325,"MEAN_ANOMALY":257.8038,"EPHEMERIS_TYPE":0,"CLASSIFICATION_TYPE":"U","NORAD_CAT_ID":56076,"ELEMENT_SET_NO":999,"REV_AT_EPOCH":15008,"BSTAR":1.6727e-05,"MEAN_MOTION_DOT":1.9e-07,"MEAN_MOTION_DDOT":0.0}]